start=new Date('2022-10-31T00:00:00.000Z').valueOf();
sats=[{"RA_OF_ASC_NODE":"275.0741","TLE_LINE1":"1 48146U 21027BG  22303.75369049  .00000531  00000-0  54547-4 0  9996","GP_ID":"216527299","TLE_LINE2":"2 48146  53.0549 275.0741 0002125  38.1218 321.9921 15.06402463 87643","COUNTRY_CODE":"US","FILE":"3637924","CENTER_NAME":"EARTH","MEAN_ANOMALY":"321.9921","PERIOD":"95.592","INCLINATION":"53.0549","MEAN_ELEMENT_THEORY":"SGP4","EPHEMERIS_TYPE":"0","ARG_OF_PERICENTER":"38.1218","MEAN_MOTION_DDOT":"0.0000000000000","MEAN_MOTION_DOT":"0.00000531","RCS_SIZE":"LARGE","PERIAPSIS":"545.734","ECCENTRICITY":"0.00021250","REF_FRAME":"TEME","BSTAR":"0.00005454700000","DECAY_DATE":null,"OBJECT_ID":"2021-027BG","CLASSIFICATION_TYPE":"U","OBJECT_TYPE":"PAYLOAD","EPOCH":"2022-10-30T18:05:18.858336","SEMIMAJOR_AXIS":"6925.341","APOAPSIS":"548.678","NORAD_CAT_ID":"48146","OBJECT_NAME":"STARLINK-2489","REV_AT_EPOCH":"8764","LAUNCH_DATE":"2021-04-07","TIME_SYSTEM":"UTC","SITE":"AFETR","ELEMENT_SET_NO":"999","MEAN_MOTION":"15.06402463"},{"PERIAPSIS":"545.465","RCS_SIZE":"MEDIUM","MEAN_MOTION_DDOT":"0.0000000000000","MEAN_MOTION_DOT":"0.00000318","ECCENTRICITY":"0.00025120","REF_FRAME":"TEME","CENTER_NAME":"EARTH","PERIOD":"95.592","MEAN_ANOMALY":"318.1723","INCLINATION":"53.0526","MEAN_ELEMENT_THEORY":"SGP4","ARG_OF_PERICENTER":"41.9458","EPHEMERIS_TYPE":"0","TLE_LINE1":"1 48147U 21027BH  22303.75138606  .00000318  00000-0  40252-4 0  9991","COUNTRY_CODE":"US","TLE_LINE2":"2 48147  53.0526 280.0799 0002512  41.9458 318.1723 15.06402983 87573","GP_ID":"216528049","FILE":"3637924","RA_OF_ASC_NODE":"280.0799","OBJECT_NAME":"STARLINK-2490","REV_AT_EPOCH":"8757","TIME_SYSTEM":"UTC","LAUNCH_DATE":"2021-04-07","SITE":"AFETR","ELEMENT_SET_NO":"999","MEAN_MOTION":"15.06402983","APOAPSIS":"548.944","NORAD_CAT_ID":"48147","OBJECT_TYPE":"PAYLOAD","CLASSIFICATION_TYPE":"U","EPOCH":"2022-10-30T18:01:59.755584","SEMIMAJOR_AXIS":"6925.339","BSTAR":"0.00004025200000","DECAY_DATE":null,"OBJECT_ID":"2021-027BH"},{"CENTER_NAME":"EARTH","PERIOD":"95.592","INCLINATION":"53.0549","MEAN_ANOMALY":"314.6578","MEAN_ELEMENT_THEORY":"SGP4","EPHEMERIS_TYPE":"0","ARG_OF_PERICENTER":"45.4588","MEAN_MOTION_DDOT":"0.0000000000000","MEAN_MOTION_DOT":"0.00001909","PERIAPSIS":"545.693","RCS_SIZE":"LARGE","ECCENTRICITY":"0.00021660","REF_FRAME":"TEME","RA_OF_ASC_NODE":"275.4976","TLE_LINE1":"1 48148U 21027BJ  22303.65417011  .00001909  00000-0  14699-3 0  9993","GP_ID":"216528795","COUNTRY_CODE":"US","TLE_LINE2":"2 48148  53.0549 275.4976 0002166  45.4588 314.6578 15.06406784 87619","FILE":"3637924","APOAPSIS":"548.693","NORAD_CAT_ID":"48148","OBJECT_NAME":"STARLINK-2491","REV_AT_EPOCH":"8761","LAUNCH_DATE":"2021-04-07","TIME_SYSTEM":"UTC","SITE":"AFETR","MEAN_MOTION":"15.06406784","ELEMENT_SET_NO":"999","BSTAR":"0.00014699000000","DECAY_DATE":null,"OBJECT_ID":"2021-027BJ","CLASSIFICATION_TYPE":"U","OBJECT_TYPE":"PAYLOAD","EPOCH":"2022-10-30T15:42:00.297504","SEMIMAJOR_AXIS":"6925.328"},{"MEAN_ELEMENT_THEORY":"SGP4","ARG_OF_PERICENTER":"44.6947","EPHEMERIS_TYPE":"0","CENTER_NAME":"EARTH","INCLINATION":"53.0541","PERIOD":"95.593","MEAN_ANOMALY":"315.4211","REF_FRAME":"TEME","RCS_SIZE":"LARGE","PERIAPSIS":"545.785","MEAN_MOTION_DDOT":"0.0000000000000","MEAN_MOTION_DOT":"-0.00000173","ECCENTRICITY":"0.00021070","RA_OF_ASC_NODE":"254.5614","COUNTRY_CODE":"US","TLE_LINE2":"2 48149  53.0541 254.5614 0002107  44.6947 315.4211 15.06389893 87933","GP_ID":"216529039","FILE":"3637924","TLE_LINE1":"1 48149U 21027BK  22303.86612653 -.00000173  00000-0  72832-5 0  9994","NORAD_CAT_ID":"48149","APOAPSIS":"548.704","TIME_SYSTEM":"UTC","LAUNCH_DATE":"2021-04-07","ELEMENT_SET_NO":"999","SITE":"AFETR","MEAN_MOTION":"15.06389893","OBJECT_NAME":"STARLINK-2492","REV_AT_EPOCH":"8793","DECAY_DATE":null,"OBJECT_ID":"2021-027BK","BSTAR":"0.00000728320000","EPOCH":"2022-10-30T20:47:13.332192","SEMIMAJOR_AXIS":"6925.380","OBJECT_TYPE":"PAYLOAD","CLASSIFICATION_TYPE":"U"},{"RA_OF_ASC_NODE":"255.7235","TLE_LINE2":"2 48150  53.0546 255.7235 0002275  50.1881 309.9308 15.06414108 87907","COUNTRY_CODE":"US","GP_ID":"216527799","FILE":"3637924","TLE_LINE1":"1 48150U 21027BL  22303.60440429  .00002822  00000-0  20824-3 0  9992","MEAN_ELEMENT_THEORY":"SGP4","ARG_OF_PERICENTER":"50.1881","EPHEMERIS_TYPE":"0","CENTER_NAME":"EARTH","INCLINATION":"53.0546","PERIOD":"95.591","MEAN_ANOMALY":"309.9308","REF_FRAME":"TEME","RCS_SIZE":"LARGE","PERIAPSIS":"545.595","MEAN_MOTION_DDOT":"0.0000000000000","MEAN_MOTION_DOT":"0.00002822","ECCENTRICITY":"0.00022750","DECAY_DATE":null,"OBJECT_ID":"2021-027BL","BSTAR":"0.00020824000000","EPOCH":"2022-10-30T14:30:20.530656","SEMIMAJOR_AXIS":"6925.305","OBJECT_TYPE":"PAYLOAD","CLASSIFICATION_TYPE":"U","NORAD_CAT_ID":"48150","APOAPSIS":"548.746","TIME_SYSTEM":"UTC","LAUNCH_DATE":"2021-04-07","MEAN_MOTION":"15.06414108","SITE":"AFETR","ELEMENT_SET_NO":"999","OBJECT_NAME":"STARLINK-2493","REV_AT_EPOCH":"8790"},{"OBJECT_NAME":"STARLINK-2503","REV_AT_EPOCH":"8790","LAUNCH_DATE":"2021-04-07","TIME_SYSTEM":"UTC","SITE":"AFETR","MEAN_MOTION":"15.06393441","ELEMENT_SET_NO":"999","APOAPSIS":"548.813","NORAD_CAT_ID":"48151","CLASSIFICATION_TYPE":"U","OBJECT_TYPE":"PAYLOAD","EPOCH":"2022-10-30T14:35:40.884576","SEMIMAJOR_AXIS":"6925.369","BSTAR":"-0.00013288000000","DECAY_DATE":null,"OBJECT_ID":"2021-027BM","MEAN_MOTION_DDOT":"0.0000000000000","MEAN_MOTION_DOT":"-0.00002260","RCS_SIZE":"LARGE","PERIAPSIS":"545.654","ECCENTRICITY":"0.00022810","REF_FRAME":"TEME","CENTER_NAME":"EARTH","PERIOD":"95.593","MEAN_ANOMALY":"318.7170","INCLINATION":"53.0554","MEAN_ELEMENT_THEORY":"SGP4","ARG_OF_PERICENTER":"41.3991","EPHEMERIS_TYPE":"0","TLE_LINE1":"1 48151U 21027BM  22303.60811209 -.00002260  00000-0 -13288-3 0  9995","GP_ID":"216527550","COUNTRY_CODE":"US","TLE_LINE2":"2 48151  53.0554 255.7183 0002281  41.3991 318.7170 15.06393441 87901","FILE":"3637924","RA_OF_ASC_NODE":"255.7183"},{"DECAY_DATE":null,"OBJECT_ID":"2021-036A","BSTAR":"-0.00009352500000","EPOCH":"2022-10-30T20:21:20.991168","SEMIMAJOR_AXIS":"6925.368","CLASSIFICATION_TYPE":"U","OBJECT_TYPE":"PAYLOAD","NORAD_CAT_ID":"48276","APOAPSIS":"548.272","LAUNCH_DATE":"2021-04-29","TIME_SYSTEM":"UTC","SITE":"AFETR","ELEMENT_SET_NO":"999","MEAN_MOTION":"15.06393710","OBJECT_NAME":"STARLINK-2567","REV_AT_EPOCH":"8404","RA_OF_ASC_NODE":"149.6478","GP_ID":"216528808","TLE_LINE2":"2 48276  53.0549 149.6478 0001500  92.7030 267.4131 15.06393710 84046","COUNTRY_CODE":"US","FILE":"3637924","TLE_LINE1":"1 48276U 21036A   22303.84815962 -.00001674  00000-0 -93525-4 0  9990","MEAN_ELEMENT_THEORY":"SGP4","EPHEMERIS_TYPE":"0","ARG_OF_PERICENTER":"92.7030","CENTER_NAME":"EARTH","PERIOD":"95.593","INCLINATION":"53.0549","MEAN_ANOMALY":"267.4131","REF_FRAME":"TEME","MEAN_MOTION_DOT":"-0.00001674","MEAN_MOTION_DDOT":"0.0000000000000","RCS_SIZE":"LARGE","PERIAPSIS":"546.194","ECCENTRICITY":"0.00015000"},{"RA_OF_ASC_NODE":"114.6395","TLE_LINE1":"1 48277U 21036B   22303.84953939 -.00000902  00000-0 -41644-4 0  9996","GP_ID":"216529052","COUNTRY_CODE":"US","TLE_LINE2":"2 48277  53.0546 114.6395 0001508 120.9816 239.1321 15.06397668 84535","FILE":"3637924","CENTER_NAME":"EARTH","MEAN_ANOMALY":"239.1321","PERIOD":"95.592","INCLINATION":"53.0546","MEAN_ELEMENT_THEORY":"SGP4","EPHEMERIS_TYPE":"0","ARG_OF_PERICENTER":"120.9816","MEAN_MOTION_DOT":"-0.00000902","MEAN_MOTION_DDOT":"0.0000000000000","PERIAPSIS":"546.176","RCS_SIZE":"LARGE","ECCENTRICITY":"0.00015080","REF_FRAME":"TEME","BSTAR":"-0.00004164400000","DECAY_DATE":null,"OBJECT_ID":"2021-036B","CLASSIFICATION_TYPE":"U","OBJECT_TYPE":"PAYLOAD","EPOCH":"2022-10-30T20:23:20.203296","SEMIMAJOR_AXIS":"6925.356","APOAPSIS":"548.265","NORAD_CAT_ID":"48277","OBJECT_NAME":"STARLINK-2569","REV_AT_EPOCH":"8453","LAUNCH_DATE":"2021-04-29","TIME_SYSTEM":"UTC","ELEMENT_SET_NO":"999","SITE":"AFETR","MEAN_MOTION":"15.06397668"},{"NORAD_CAT_ID":"48278","APOAPSIS":"548.052","LAUNCH_DATE":"2021-04-29","TIME_SYSTEM":"UTC","MEAN_MOTION":"15.06392007","SITE":"AFETR","ELEMENT_SET_NO":"999","OBJECT_NAME":"STARLINK-2543","REV_AT_EPOCH":"8431","DECAY_DATE":null,"OBJECT_ID":"2021-036C","BSTAR":"0.00000792720000","EPOCH":"2022-10-30T19:41:32.983296","SEMIMAJOR_AXIS":"6925.373","CLASSIFICATION_TYPE":"U","OBJECT_TYPE":"PAYLOAD","MEAN_ELEMENT_THEORY":"SGP4","ARG_OF_PERICENTER":"122.2753","EPHEMERIS_TYPE":"0","CENTER_NAME":"EARTH","PERIOD":"95.593","MEAN_ANOMALY":"237.8350","INCLINATION":"53.0547","REF_FRAME":"TEME","MEAN_MOTION_DOT":"-0.00000163","MEAN_MOTION_DDOT":"0.0000000000000","PERIAPSIS":"546.424","RCS_SIZE":"LARGE","ECCENTRICITY":"0.00011760","RA_OF_ASC_NODE":"129.8326","GP_ID":"216527812","TLE_LINE2":"2 48278  53.0547 129.8326 0001176 122.2753 237.8350 15.06392007 84310","COUNTRY_CODE":"US","FILE":"3637924","TLE_LINE1":"1 48278U 21036C   22303.82052064 -.00000163  00000-0  79272-5 0  9991"},{"RA_OF_ASC_NODE":"130.6857","FILE":"3637924","GP_ID":"216527563","TLE_LINE2":"2 48279  53.0528 130.6857 0001318 100.4301 259.6836 15.06411803 84287","COUNTRY_CODE":"US","TLE_LINE1":"1 48279U 21036D   22303.61410207  .00000334  00000-0  41286-4 0  9998","ARG_OF_PERICENTER":"100.4301","EPHEMERIS_TYPE":"0","MEAN_ELEMENT_THEORY":"SGP4","PERIOD":"95.591","INCLINATION":"53.0528","MEAN_ANOMALY":"259.6836","CENTER_NAME":"EARTH","REF_FRAME":"TEME","ECCENTRICITY":"0.00013180","MEAN_MOTION_DDOT":"0.0000000000000","MEAN_MOTION_DOT":"0.00000334","RCS_SIZE":"LARGE","PERIAPSIS":"546.265","OBJECT_ID":"2021-036D","DECAY_DATE":null,"BSTAR":"0.00004128600000","SEMIMAJOR_AXIS":"6925.312","EPOCH":"2022-10-30T14:44:18.418848","CLASSIFICATION_TYPE":"U","OBJECT_TYPE":"PAYLOAD","NORAD_CAT_ID":"48279","APOAPSIS":"548.090","SITE":"AFETR","MEAN_MOTION":"15.06411803","ELEMENT_SET_NO":"999","LAUNCH_DATE":"2021-04-29","TIME_SYSTEM":"UTC","REV_AT_EPOCH":"8428","OBJECT_NAME":"STARLINK-2580"}];
